QIANFAN-81              
1 63167U 25046J   25275.16566178  .00000326  00000+0  48657-3 0  9994
2 63167  88.9818 327.2755 0013241 335.0564  24.9945 13.50983386 37824
QIANFAN-82              
1 63168U 25046K   25275.19866801  .00000313  00000+0  46633-3 0  9992
2 63168  88.9818 327.3157 0011666 344.9218  15.1583 13.50971315 37814
QIANFAN-83              
1 63169U 25046L   25275.14164502  .00000291  00000+0  36153-3 0  9998
2 63169  88.9818 327.2384 0012565 332.4271  27.6219 13.61958234 37851
QIANFAN-84              
1 63170U 25046M   25275.15310881  .00000212  00000+0  30972-3 0  9990
2 63170  88.9818 327.4534 0014483 339.2464  20.8097 13.50983511 37732
QIANFAN-85              
1 63171U 25046N   25273.44580510  .00000223  00000+0  32688-3 0  9997
2 63171  88.9820 327.5010 0012124 348.9073  11.1809 13.50980190 37575
QIANFAN-86              
1 63172U 25046P   25275.15753987  .00000237  00000+0  34857-3 0  9993
2 63172  88.9819 327.1854 0010038 350.2183   9.8771 13.50970468 37889
QIANFAN-87              
1 63173U 25046Q   25275.20280209  .00000307  00000+0  45768-3 0  9993
2 63173  88.9816 327.2950 0010547 343.6805  16.4005 13.50977608 37828
QIANFAN-88              
1 63174U 25046R   25275.14520282  .00000251  00000+0  37056-3 0  9994
2 63174  88.9818 327.2538 0011229 352.2872   7.8104 13.50970471 37848
